ONEWEB-0685             
1 54679U 22166AP  26005.26907592  .00000051  00000+0  92504-4 0  9990
2 54679  87.9224 276.4870 0001879  82.8526 277.2822 13.21836652149893
ONEWEB-0712             
1 54680U 22166AQ  26005.12253536  .00000140  00000+0  33328-3 0  9996
2 54680  87.9045 261.2395 0001832  58.8830 301.2481 13.16594020150604
ONEWEB-0714             
1 54681U 22166AR  26005.27536049 -.00001481  00000+0 -36186-2 0  9991
2 54681  87.9223 276.4800 0001787  79.7538 280.3798 13.21834652150015
ONEWEB-0532             
1 55140U 23004A   26005.07433582  .00000050  00000+0  94853-4 0  9996
2 55140  87.9096  38.2860 0001941 106.3351 253.7994 13.17650073146101
ONEWEB-0533             
1 55141U 23004B   26005.30986114 -.00000321  00000+0 -92731-3 0  9992
2 55141  87.8927  23.0111 0001922  90.0057 270.1291 13.12444985146691
ONEWEB-0541             
1 55142U 23004C   26005.13610186  .00000020  00000+0  20010-4 0  9993
2 55142  87.8835  53.5125 0001650 101.3580 258.7734 13.11415082144572
ONEWEB-0543             
1 55143U 23004D   26005.02933934  .00000072  00000+0  14942-3 0  9994
2 55143  87.9156   7.8880 0001769  79.1237 281.0094 13.18684577148196
ONEWEB-0544             
1 55144U 23004E   26005.02276097  .00000062  00000+0  12411-3 0  9993
2 55144  87.9161   7.8810 0001509  85.9994 274.1310 13.18687147148193
